$$SOE
2459580.500000000, A.D. 2022-Jan-01 00:00:00.0000, -8.250269965524711E+07, 1.372936399703556E+08, 1.497672080516611E+07,
2459587.500000000, A.D. 2022-Jan-08 00:00:00.0000, -9.300187029068904E+07, 1.256086533182403E+08, 1.178801264321353E+07,
2459594.500000000, A.D. 2022-Jan-15 00:00:00.0000, -1.023262828440206E+08, 1.123416319533130E+08, 8.451187034060203E+06,
2459601.500000000, A.D. 2022-Jan-22 00:00:00.0000, -1.102390572286452E+08, 9.752994721226491E+07, 4.998647937495582E+06,
2459608.500000000, A.D. 2022-Jan-29 00:00:00.0000, -1.164737160753680E+08, 8.123947728664617E+07, 1.471018971365206E+06,
2459615.500000000, A.D. 2022-Feb-05 00:00:00.0000, -1.207313748881416E+08, 6.357687267443977E+07, -2.080398647918146E+06,
2459622.500000000, A.D. 2022-Feb-12 00:00:00.0000, -1.226801841071632E+08, 4.470645277316280E+07, -5.590606263849819E+06,
2459629.500000000, A.D. 2022-Feb-19 00:00:00.0000, -1.219595424496802E+08, 2.487284517073785E+07, -8.977419292783126E+06,
2459636.500000000, A.D. 2022-Feb-26 00:00:00.0000, -1.181933214949878E+08, 4.429790619131132E+06, -1.213790101812892E+07,
2459643.500000000, A.D. 2022-Mar-05 00:00:00.0000, -1.110185887603023E+08, -1.612663589808149E+07, -1.494570824598268E+07,
2459650.500000000, A.D. 2022-Mar-12 00:00:00.0000, -1.001381347120838E+08, -3.612704712322146E+07, -1.725141110254682E+07,
2459657.500000000, A.D. 2022-Mar-19 00:00:00.0000, -8.540354507308707E+07, -5.471545462764077E+07, -1.888923783206116E+07,
2459664.500000000, A.D. 2022-Mar-26 00:00:00.0000, -6.692504915540497E+07, -7.088000595326892E+07, -1.969444200132858E+07,
2459671.500000000, A.D. 2022-Apr-02 00:00:00.0000, -4.517985354460799E+07, -8.355731792875278E+07, -1.953336766963031E+07,
2459678.500000000, A.D. 2022-Apr-09 00:00:00.0000, -2.105977503900507E+07, -9.181711015389912E+07, -1.834091866686650E+07,
2459685.500000000, A.D. 2022-Apr-16 00:00:00.0000, 4.205301962519339E+06, -9.507738525350147E+07, -1.614980426186486E+07,
2459692.500000000, A.D. 2022-Apr-23 00:00:00.0000, 2.925444683999742E+07, -9.324875507505596E+07, -1.309314376318660E+07,
2459699.500000000, A.D. 2022-Apr-30 00:00:00.0000, 5.284923029644063E+07, -8.672730626562922E+07, -9.375504083773870E+06,
2459706.500000000, A.D. 2022-May-07 00:00:00.0000, 7.405733810268025E+07, -7.624959912047197E+07, -5.227482554039881E+06,
2459713.500000000, A.D. 2022-May-14 00:00:00.0000, 9.230979443660660E+07, -6.269934879938907E+07, -8.656700971868858E+05,
2459720.500000000, A.D. 2022-May-21 00:00:00.0000, 1.073569025631305E+08, -4.694993463872658E+07, 3.530047852218855E+06,
2459727.500000000, A.D. 2022-May-28 00:00:00.0000, 1.191807991676809E+08, -2.977437349411049E+07, 7.822660168054635E+06,
2459734.500000000, A.D. 2022-Jun-04 00:00:00.0000, 1.279089390272737E+08, -1.181284730535951E+07, 1.191424646151701E+07,
2459741.500000000, A.D. 2022-Jun-11 00:00:00.0000, 1.337475803125348E+08, 6.425201196298365E+06, 1.573834155646189E+07,
2459748.500000000, A.D. 2022-Jun-18 00:00:00.0000, 1.369374584566942E+08, 2.454355985092511E+07, 1.925203325126058E+07,
2459755.500000000, A.D. 2022-Jun-25 00:00:00.0000, 1.377270765325152E+08, 4.223772486934772E+07, 2.242928423422881E+07,
2459762.500000000, A.D. 2022-Jul-02 00:00:00.0000, 1.363580249992968E+08, 5.927473806625107E+07, 2.525580495217689E+07,
2459769.500000000, A.D. 2022-Jul-09 00:00:00.0000, 1.330578282172568E+08, 7.547628147279260E+07, 2.772531654883474E+07,
2459776.500000000, A.D. 2022-Jul-16 00:00:00.0000, 1.280372227448983E+08, 9.070526705557048E+07, 2.983690816241201E+07,
2459783.500000000, A.D. 2022-Jul-23 00:00:00.0000, 1.214899085742832E+08, 1.048555053151297E+08, 3.159320338839854E+07,
2459790.500000000, A.D. 2022-Jul-30 00:00:00.0000, 1.135935993345356E+08, 1.178438621214170E+08, 3.299910497408053E+07,
2459797.500000000, A.D. 2022-Aug-06 00:00:00.0000, 1.045116973798423E+08, 1.296043456206811E+08, 3.406094530587249E+07,
2459804.500000000, A.D. 2022-Aug-13 00:00:00.0000, 9.439521691220932E+07, 1.400836609853552E+08, 3.478592022254024E+07,
2459811.500000000, A.D. 2022-Aug-20 00:00:00.0000, 8.338475619874537E+07, 1.492378690612611E+08, 3.518172101588257E+07,
2459818.500000000, A.D. 2022-Aug-27 00:00:00.0000, 7.161242521265787E+07, 1.570298736137449E+08, 3.525630630609965E+07,
2459825.500000000, A.D. 2022-Sep-03 00:00:00.0000, 5.920369443555382E+07, 1.634275341011473E+08, 3.501777454465663E+07,
2459832.500000000, A.D. 2022-Sep-10 00:00:00.0000, 4.627916391758426E+07, 1.684022567024007E+08, 3.447431131842785E+07,
2459839.500000000, A.D. 2022-Sep-17 00:00:00.0000, 3.295627058359713E+07, 1.719279591668247E+08, 3.363419518828195E+07,
2459846.500000000, A.D. 2022-Sep-24 00:00:00.0000, 1.935096277097329E+07, 1.739803384407671E+08, 3.250585282227820E+07,
2459853.500000000, A.D. 2022-Oct-01 00:00:00.0000, 5.579377994459572E+06, 1.745363971150657E+08, 3.109795963923720E+07,
2459860.500000000, A.D. 2022-Oct-08 00:00:00.0000, -8.240434995109780E+06, 1.735742086685348E+08, 2.941958682972810E+07,
2459867.500000000, A.D. 2022-Oct-15 00:00:00.0000, -2.198670593369394E+07, 1.710729243821080E+08, 2.748040014390017E+07,
2459874.500000000, A.D. 2022-Oct-22 00:00:00.0000, -3.553199780039284E+07, 1.670130453018006E+08, 2.529092021356679E+07,
2459881.500000000, A.D. 2022-Oct-29 00:00:00.0000, -4.874107167892123E+07, 1.613770088576916E+08, 2.286285880014196E+07,
2459888.500000000, A.D. 2022-Nov-05 00:00:00.0000, -6.146850516636699E+07, 1.541501800024986E+08, 2.020955221663429E+07,
2459895.500000000, A.D. 2022-Nov-12 00:00:00.0000, -7.355601318441045E+07, 1.453223815235667E+08, 1.734652129990581E+07,
2459902.500000000, A.D. 2022-Nov-19 00:00:00.0000, -8.482942878060789E+07, 1.348901591201332E+08, 1.429219695226028E+07,
2459909.500000000, A.D. 2022-Nov-26 00:00:00.0000, -9.509532771402916E+07, 1.228600651002749E+08, 1.106886259446654E+07,
2459916.500000000, A.D. 2022-Dec-03 00:00:00.0000, -1.041373412014915E+08, 1.092533654101384E+08, 7.703879345692612E+06,
2459923.500000000, A.D. 2022-Dec-10 00:00:00.0000, -1.117123241764823E+08, 9.411273570570213E+07, 4.231274448774770E+06,
2459930.500000000, A.D. 2022-Dec-17 00:00:00.0000, -1.175467822162869E+08, 7.751171447923493E+07, 6.937830342869870E+05,
2459937.500000000, A.D. 2022-Dec-24 00:00:00.0000, -1.213343931232286E+08, 5.956790280767453E+07, -2.854575298863921E+06,
2459944.500000000, A.D. 2022-Dec-31 00:00:00.0000, -1.227362182534326E+08, 4.046105879162802E+07, -6.345358948338035E+06,
2459951.500000000, A.D. 2023-Jan-07 00:00:00.0000, -1.213864516966435E+08, 2.045710986598136E+07, -9.692138461204711E+06,
2459958.500000000, A.D. 2023-Jan-14 00:00:00.0000, -1.169084259533686E+08, -6.180156868085545E+04, -1.278699752377808E+07,
2459965.500000000, A.D. 2023-Jan-21 00:00:00.0000, -1.089478616716524E+08, -2.056376247671381E+07, -1.549830472651167E+07,
2459972.500000000, A.D. 2023-Jan-28 00:00:00.0000, -9.723174786412255E+07, -4.033827325870362E+07, -1.767211436206651E+07,
2459979.500000000, A.D. 2023-Feb-04 00:00:00.0000, -8.165828638261566E+07, -5.849003074425057E+07, -1.914091009922550E+07,
2459986.500000000, A.D. 2023-Feb-11 00:00:00.0000, -6.240999429391371E+07, -7.398358440405199E+07, -1.974376639340152E+07,
2459993.500000000, A.D. 2023-Feb-18 00:00:00.0000, -4.005467143641114E+07, -8.576632750483324E+07, -1.935886729101396E+07,
2460000.500000000, A.D. 2023-Feb-25 00:00:00.0000, -1.557022079689397E+07, -9.296653831433615E+07, -1.794081259517050E+07,
2460007.500000000, A.D. 2023-Mar-04 00:00:00.0000, 9.763273198138537E+06, -9.510250139813997E+07, -1.554535226555876E+07,
2460014.500000000, A.D. 2023-Mar-11 00:00:00.0000, 3.459069482277002E+07, -9.219785077763322E+07, -1.232470979489728E+07,
2460021.500000000, A.D. 2023-Mar-18 00:00:00.0000, 5.772918001018006E+07, -8.473924056685458E+07, -8.493163699522689E+06,
2460028.500000000, A.D. 2023-Mar-25 00:00:00.0000, 7.832558853349628E+07, -7.351190271066257E+07, -4.281113800262921E+06,
2460035.500000000, A.D. 2023-Apr-01 00:00:00.0000, 9.588720002830240E+07, -5.940855587717141E+07, 1.016526469564699E+05,
2460042.500000000, A.D. 2023-Apr-08 00:00:00.0000, 1.102231447303461E+08, -4.328592217017482E+07, 4.484623387468394E+06,
2460049.500000000, A.D. 2023-Apr-15 00:00:00.0000, 1.213542774256280E+08, -2.588906225019999E+07, 8.739928994902905E+06,
2460056.500000000, A.D. 2023-Apr-22 00:00:00.0000, 1.294301941936643E+08, -7.828491115060028E+06, 1.277727201287465E+07,
2460063.500000000, A.D. 2023-Apr-29 00:00:00.0000, 1.346677744515610E+08, 1.041296765879300E+07, 1.653601339988839E+07,
2460070.500000000, A.D. 2023-May-06 00:00:00.0000, 1.373112107900928E+08, 2.846106901037584E+07, 1.997746571248184E+07,
2460077.500000000, A.D. 2023-May-13 00:00:00.0000, 1.376083965540224E+08, 4.602862409713047E+07, 2.307855312877070E+07,
2460084.500000000, A.D. 2023-May-20 00:00:00.0000, 1.357982314953228E+08, 6.289597467173071E+07, 2.582701347971548E+07,
2460091.500000000, A.D. 2023-May-27 00:00:00.0000, 1.321046587613315E+08, 7.889487160398303E+07, 2.821793055561177E+07,
2460098.500000000, A.D. 2023-Jun-03 00:00:00.0000, 1.267346194187446E+08, 9.389578692703196E+07, 3.025129429685332E+07,
2460105.500000000, A.D. 2023-Jun-10 00:00:00.0000, 1.198781685958981E+08, 1.077981778163864E+08, 3.193031284523197E+07,
2460112.500000000, A.D. 2023-Jun-17 00:00:00.0000, 1.117097089599087E+08, 1.205231116142294E+08, 3.326025910495242E+07,
2460119.500000000, A.D. 2023-Jun-24 00:00:00.0000, 1.023897442266468E+08, 1.320077116226036E+08, 3.424769210135951E+07,
2460126.500000000, A.D. 2023-Jul-01 00:00:00.0000, 9.206682496783404E+07, 1.422009823162280E+08, 3.489994011292025E+07,
2460133.500000000, A.D. 2023-Jul-08 00:00:00.0000, 8.087951564204283E+07, 1.510606720395163E+08, 3.522476738327533E+07,
2460140.500000000, A.D. 2023-Jul-15 00:00:00.0000, 6.895830364960173E+07, 1.585509128728874E+08, 3.523017079676789E+07,
2460147.500000000, A.D. 2023-Jul-22 00:00:00.0000, 5.642742854812257E+07, 1.646404473058881E+08, 3.492427032053841E+07,
$$EOE